{
  "type": "FeatureCollection",
  "features": [
    {
      "type": "Feature",
      "properties": {
        "norad_id": 66618,
        "name": "STARLINK-35970",
        "group": "last-30-days",
        "lat": -44.52724430464046,
        "lon": 59.18649999502927,
        "alt_km": 410.3004485480851,
        "timestamp": "2025-12-11T18:59:44.811137+00:00",
        "meta_object_name": "STARLINK-35970",
        "meta_object_id": "2025-271B",
        "meta_epoch": "2025-12-11T06:00:02.999808",
        "meta_mean_motion": 15.56429649,
        "meta_eccentricity": 0.00010405,
        "meta_inclination": 53.1595,
        "meta_ra_of_asc_node": 194.2831,
        "meta_arg_of_pericenter": 77.6708,
        "meta_mean_anomaly": 10.3163,
        "meta_ephemeris_type": 0,
        "meta_classification_type": "U",
        "meta_norad_cat_id": 66618,
        "meta_element_set_no": 999,
        "meta_rev_at_epoch": 400,
        "meta_bstar": -0.032890764,
        "meta_mean_motion_dot": -0.02105744,
        "meta_mean_motion_ddot": 0,
        "tle_line1": "1 66618U 25271B   25345.25003472 -.02105744  00000+0 -32891-1 0  9994",
        "tle_line2": "2 66618  53.1595 194.2831 0001040  77.6708  10.3163 15.56429649  4004"
      },
      "geometry": {
        "type": "Point",
        "coordinates": [
          59.18649999502927,
          -44.52724430464046
        ]
      }
    },
    {
      "type": "Feature",
      "properties": {
        "norad_id": 66619,
        "name": "STARLINK-35951",
        "group": "last-30-days",
        "lat": -12.43504634699332,
        "lon": 21.28159587470054,
        "alt_km": 407.6448649830345,
        "timestamp": "2025-12-11T18:59:44.811148+00:00",
        "meta_object_name": "STARLINK-35951",
        "meta_object_id": "2025-271C",
        "meta_epoch": "2025-12-11T06:00:02.999808",
        "meta_mean_motion": 15.56433047,
        "meta_eccentricity": 8.428e-05,
        "meta_inclination": 53.1601,
        "meta_ra_of_asc_node": 194.3784,
        "meta_arg_of_pericenter": 95.5551,
        "meta_mean_anomaly": 306.7786,
        "meta_ephemeris_type": 0,
        "meta_classification_type": "U",
        "meta_norad_cat_id": 66619,
        "meta_element_set_no": 999,
        "meta_rev_at_epoch": 400,
        "meta_bstar": -0.033025466,
        "meta_mean_motion_dot": -0.02113525,
        "meta_mean_motion_ddot": 0,
        "tle_line1": "1 66619U 25271C   25345.25003472 -.02113525  00000+0 -33025-1 0  9991",
        "tle_line2": "2 66619  53.1601 194.3784 0000842  95.5551 306.7786 15.56433047  4005"
      },
      "geometry": {
        "type": "Point",
        "coordinates": [
          21.28159587470054,
          -12.43504634699332
        ]
      }
    },
    {
      "type": "Feature",
      "properties": {
        "norad_id": 66620,
        "name": "STARLINK-35936",
        "group": "last-30-days",
        "lat": -7.877916562919808,
        "lon": 17.733674440022803,
        "alt_km": 407.1606375996462,
        "timestamp": "2025-12-11T18:59:44.811158+00:00",
        "meta_object_name": "STARLINK-35936",
        "meta_object_id": "2025-271D",
        "meta_epoch": "2025-12-11T06:00:02.999808",
        "meta_mean_motion": 15.56433717,
        "meta_eccentricity": 8.037e-05,
        "meta_inclination": 53.16,
        "meta_ra_of_asc_node": 194.3917,
        "meta_arg_of_pericenter": 88.1957,
        "meta_mean_anomaly": 308.3852,
        "meta_ephemeris_type": 0,
        "meta_classification_type": "U",
        "meta_norad_cat_id": 66620,
        "meta_element_set_no": 999,
        "meta_rev_at_epoch": 400,
        "meta_bstar": -0.032997993,
        "meta_mean_motion_dot": -0.02111984,
        "meta_mean_motion_ddot": 0,
        "tle_line1": "1 66620U 25271D   25345.25003472 -.02111984  00000+0 -32998-1 0  9998",
        "tle_line2": "2 66620  53.1600 194.3917 0000803  88.1957 308.3852 15.56433717  4005"
      },
      "geometry": {
        "type": "Point",
        "coordinates": [
          17.733674440022803,
          -7.877916562919808
        ]
      }
    },
    {
      "type": "Feature",
      "properties": {
        "norad_id": 66621,
        "name": "STARLINK-35847",
        "group": "last-30-days",
        "lat": -46.357071363628286,
        "lon": 63.48762529690991,
        "alt_km": 410.55851142579104,
        "timestamp": "2025-12-11T18:59:44.811168+00:00",
        "meta_object_name": "STARLINK-35847",
        "meta_object_id": "2025-271E",
        "meta_epoch": "2025-12-11T06:00:02.999808",
        "meta_mean_motion": 15.56434519,
        "meta_eccentricity": 0.00012616,
        "meta_inclination": 53.1593,
        "meta_ra_of_asc_node": 194.2752,
        "meta_arg_of_pericenter": 74.532,
        "meta_mean_anomaly": 16.9903,
        "meta_ephemeris_type": 0,
        "meta_classification_type": "U",
        "meta_norad_cat_id": 66621,
        "meta_element_set_no": 999,
        "meta_rev_at_epoch": 400,
        "meta_bstar": -0.032952463,
        "meta_mean_motion_dot": -0.02109746,
        "meta_mean_motion_ddot": 0,
        "tle_line1": "1 66621U 25271E   25345.25003472 -.02109746  00000+0 -32952-1 0  9992",
        "tle_line2": "2 66621  53.1593 194.2752 0001261  74.5320  16.9903 15.56434519  4005"
      },
      "geometry": {
        "type": "Point",
        "coordinates": [
          63.48762529690991,
          -46.357071363628286
        ]
      }
    },
    {
      "type": "Feature",
      "properties": {
        "norad_id": 66622,
        "name": "STARLINK-35950",
        "group": "last-30-days",
        "lat": -13.944015144586341,
        "lon": 22.491234887676764,
        "alt_km": 407.91255751850167,
        "timestamp": "2025-12-11T18:59:44.811182+00:00",
        "meta_object_name": "STARLINK-35950",
        "meta_object_id": "2025-271F",
        "meta_epoch": "2025-12-11T06:00:02.999808",
        "meta_mean_motion": 15.56433212,
        "meta_eccentricity": 8.204e-05,
        "meta_inclination": 53.16,
        "meta_ra_of_asc_node": 194.3756,
        "meta_arg_of_pericenter": 88.803,
        "meta_mean_anomaly": 315.4459,
        "meta_ephemeris_type": 0,
        "meta_classification_type": "U",
        "meta_norad_cat_id": 66622,
        "meta_element_set_no": 999,
        "meta_rev_at_epoch": 400,
        "meta_bstar": -0.032996294,
        "meta_mean_motion_dot": -0.02111862,
        "meta_mean_motion_ddot": 0,
        "tle_line1": "1 66622U 25271F   25345.25003472 -.02111862  00000+0 -32996-1 0  9993",
        "tle_line2": "2 66622  53.1600 194.3756 0000820  88.8030 315.4459 15.56433212  4008"
      },
      "geometry": {
        "type": "Point",
        "coordinates": [
          22.491234887676764,
          -13.944015144586341
        ]
      }
    },
    {
      "type": "Feature",
      "properties": {
        "norad_id": 66623,
        "name": "STARLINK-35920",
        "group": "last-30-days",
        "lat": -16.94308225686688,
        "lon": 24.956950211479736,
        "alt_km": 408.1841552390915,
        "timestamp": "2025-12-11T18:59:44.811192+00:00",
        "meta_object_name": "STARLINK-35920",
        "meta_object_id": "2025-271G",
        "meta_epoch": "2025-12-11T06:00:02.999808",
        "meta_mean_motion": 15.56428406,
        "meta_eccentricity": 7.687e-05,
        "meta_inclination": 53.16,
        "meta_ra_of_asc_node": 194.3666,
        "meta_arg_of_pericenter": 92.6165,
        "meta_mean_anomaly": 315.4684,
        "meta_ephemeris_type": 0,
        "meta_classification_type": "U",
        "meta_norad_cat_id": 66623,
        "meta_element_set_no": 999,
        "meta_rev_at_epoch": 400,
        "meta_bstar": -0.032896367,
        "meta_mean_motion_dot": -0.02105802,
        "meta_mean_motion_ddot": 0,
        "tle_line1": "1 66623U 25271G   25345.25003472 -.02105802  00000+0 -32896-1 0  9990",
        "tle_line2": "2 66623  53.1600 194.3666 0000768  92.6165 315.4684 15.56428406  4001"
      },
      "geometry": {
        "type": "Point",
        "coordinates": [
          24.956950211479736,
          -16.94308225686688
        ]
      }
    },
    {
      "type": "Feature",
      "properties": {
        "norad_id": 66624,
        "name": "STARLINK-35927",
        "group": "last-30-days",
        "lat": -15.447453629735078,
        "lon": 23.71607938195541,
        "alt_km": 408.0479427337932,
        "timestamp": "2025-12-11T18:59:44.811204+00:00",
        "meta_object_name": "STARLINK-35927",
        "meta_object_id": "2025-271H",
        "meta_epoch": "2025-12-11T06:00:02.999808",
        "meta_mean_motion": 15.56430945,
        "meta_eccentricity": 8.738e-05,
        "meta_inclination": 53.1599,
        "meta_ra_of_asc_node": 194.3716,
        "meta_arg_of_pericenter": 92.7735,
        "meta_mean_anomaly": 313.396,
        "meta_ephemeris_type": 0,
        "meta_classification_type": "U",
        "meta_norad_cat_id": 66624,
        "meta_element_set_no": 999,
        "meta_rev_at_epoch": 400,
        "meta_bstar": -0.032993603,
        "meta_mean_motion_dot": -0.02111583,
        "meta_mean_motion_ddot": 0,
        "tle_line1": "1 66624U 25271H   25345.25003472 -.02111583  00000+0 -32994-1 0  9993",
        "tle_line2": "2 66624  53.1599 194.3716 0000873  92.7735 313.3960 15.56430945  4001"
      },
      "geometry": {
        "type": "Point",
        "coordinates": [
          23.71607938195541,
          -15.447453629735078
        ]
      }
    }
  ]
}